OBJECT_NAME,OBJECT_ID,EPOCH,MEAN_MOTION,ECCENTRICITY,INCLINATION,RA_OF_ASC_NODE,ARG_OF_PERICENTER,MEAN_ANOMALY,EPHEMERIS_TYPE,CLASSIFICATION_TYPE,NORAD_CAT_ID,ELEMENT_SET_NO,REV_AT_EPOCH,BSTAR,MEAN_MOTION_DOT,MEAN_MOTION_DDOT
STARLINK-37317,2026-111E,2026-07-02T10:30:13.009248,15.34406988,.0001303,53.1611,80.2440,95.7528,264.3623,0,U,69152,999,660,.32432E-3,.10599E-3,0
STARLINK-37374,2026-111F,2026-07-02T16:00:01.998720,15.43279954,.0000961,53.1598,79.3345,84.7890,33.8350,0,U,69153,999,604,-.48347E-1,-.1953051E-1,0
STARLINK-37235,2026-111G,2026-07-02T17:29:23.900640,15.49343868,.000109,53.1586,79.2554,86.6793,273.4341,0,U,69154,999,664,.90032E-3,.50006E-3,0
STARLINK-37329,2026-111H,2026-07-02T16:39:21.650112,15.34383518,.0001231,53.1593,79.0004,92.8235,267.2909,0,U,69155,999,664,.74672E-3,.24924E-3,0
STARLINK-37345,2026-111J,2026-07-01T23:21:32.708736,15.34419700,.00010012,53.1608,82.3225,114.9033,245.2074,0,U,69156,999,653,.10366242E-2,.34832E-3,0
STARLINK-37353,2026-111K,2026-07-02T10:15:04.400928,15.34390845,.0001041,53.1596,80.1762,102.1409,257.9710,0,U,69157,999,660,.78737E-3,.26312E-3,0
STARLINK-37363,2026-111L,2026-07-02T18:01:03.409824,15.34398817,.0000679,53.1584,78.6407,111.4067,248.7008,0,U,69158,999,665,.5323E-3,.1765E-3,0
STARLINK-37343,2026-111M,2026-07-02T10:47:12.983712,15.49325091,.0000978,53.1592,80.3477,94.5744,265.5377,0,U,69159,999,660,.18223E-2,.102296E-2,0
STARLINK-37328,2026-111N,2026-07-02T10:06:01.022688,15.34176411,.0001887,53.1585,80.1345,92.6996,267.4223,0,U,69160,999,660,.849E-2,.29594E-2,0
STARLINK-37311,2026-111P,2026-07-02T10:02:57.231744,15.34425605,.000144,53.1588,80.1240,61.8214,298.2934,0,U,69161,999,660,.11104E-2,.37356E-3,0
STARLINK-36286,2026-111Q,2026-07-02T09:59:57.015168,15.34420717,.0001291,53.1581,80.1180,87.4736,272.6414,0,U,69162,999,660,.15505E-2,.52412E-3,0
STARLINK-37196,2026-111R,2026-07-02T17:45:54.276192,15.34404389,.0001878,53.1599,78.5732,94.8736,265.2481,0,U,69163,999,665,.99805E-3,.335E-3,0
STARLINK-36288,2026-111S,2026-07-02T17:42:51.420960,15.34388327,.000123,53.1585,78.5691,87.9510,272.1633,0,U,69164,999,665,.11009E-2,.36989E-3,0
STARLINK-37445,2026-111T,2026-07-02T17:44:09.398688,15.35371001,.0001078,53.1589,78.5762,75.8969,284.2154,0,U,69165,999,665,.53242E-3,.18219E-3,0
STARLINK-37491,2026-111U,2026-07-02T17:40:51.011328,15.35387778,.0001054,53.1584,78.5566,95.8867,264.2257,0,U,69166,999,665,.88161E-3,.30484E-3,0
STARLINK-37474,2026-111V,2026-07-02T17:33:45.971712,15.34411215,.0000957,53.1583,78.5217,107.9216,252.1891,0,U,69167,999,665,.18995E-2,.64375E-3,0
STARLINK-37469,2026-111W,2026-07-02T17:23:05.417664,15.49368062,.0000465,53.1583,79.2227,9.7899,350.3119,0,U,69168,999,664,.15665E-2,.8784E-3,0
STARLINK-37515,2026-111X,2026-07-02T00:20:01.037760,15.35443881,.00013217,53.1585,81.8662,72.9473,287.1674,0,U,69169,999,654,.13296679E-2,.46352E-3,0
STARLINK-37437,2026-111Y,2026-07-02T16:00:01.998720,15.34395962,.000119,53.1591,78.7557,102.9060,292.3075,0,U,69170,999,604,.20448E-2,.69341E-3,0
STARLINK-37392,2026-111Z,2026-07-02T06:12:55.789056,15.34451832,.0001161,53.1602,80.5487,111.1922,248.9204,0,U,69171,999,658,.89816E-3,.30141E-3,0
STARLINK-37472,2026-111AA,2026-07-02T16:00:01.998720,15.35371910,.0001197,53.1597,78.7048,98.1820,326.6478,0,U,69172,999,604,.15133E-2,.52727E-3,0
STARLINK-37461,2026-111AB,2026-07-02T17:11:24.235872,15.49347737,.0000567,53.1582,79.1686,54.2825,305.8237,0,U,69173,999,664,.10658E-2,.59361E-3,0
STARLINK-37333,2026-111AC,2026-07-02T16:00:01.998720,15.35339245,.0001205,53.1591,78.7560,122.3264,276.2558,0,U,69174,999,604,.21087E-2,.73754E-3,0
STARLINK-37385,2026-111AD,2026-07-02T10:48:47.265984,15.49321752,.0000962,53.1585,80.3518,97.9918,262.1200,0,U,69175,999,660,.11997E-2,.66875E-3,0
STARLINK-37414,2026-111AE,2026-07-02T00:00:47.431872,15.34425405,.00008114,53.1603,81.7795,98.1145,261.9950,0,U,69176,999,654,.63793657E-3,.21256E-3,0
STRIX-7,2026-112A,2026-07-02T19:22:50.401920,15.01526457,.0023317,44.9069,110.4029,138.2573,222.0082,0,U,69177,999,622,.39648E-3,.5008E-4,0
SHENZHOU-23 (SZ-23),2026-113A,2026-07-02T01:47:33.745632,15.61404719,.00087824,41.4669,231.3605,197.5526,162.5011,0,U,69180,999,29543,.70551523E-4,.5862E-4,0
STARLINK-37380,2026-114A,2026-07-02T16:00:01.998720,15.34359807,.0001321,53.1605,127.2657,78.9646,331.3431,0,U,69182,999,605,.18168E-2,.61432E-3,0
STARLINK-37089,2026-114B,2026-07-02T16:00:01.998720,15.36132565,.0001167,53.1595,127.2464,114.8155,306.1508,0,U,69183,999,600,-.72469E-1,-.2307716E-1,0
STARLINK-37428,2026-114C,2026-07-02T13:00:21.682368,15.49089000,.0005338,53.1603,128.0178,41.7492,318.3923,0,U,69184,999,716,.14567E-2,.80815E-3,0
