STARLINK-37317          
1 69152U 26111E   26183.43765057  .00010599  00000+0  32432-3 0  9991
2 69152  53.1611  80.2440 0001303  95.7528 264.3623 15.34406988  6609
STARLINK-37374          
1 69153U 26111F   26183.66668980 -.01953051  00000+0 -48347-1 0  9996
2 69153  53.1598  79.3345 0000961  84.7890  33.8350 15.43279954  6041
STARLINK-37235          
1 69154U 26111G   26183.72874885  .00050006  00000+0  90032-3 0  9992
2 69154  53.1586  79.2554 0001090  86.6793 273.4341 15.49343868  6647
STARLINK-37329          
1 69155U 26111H   26183.69400058  .00024924  00000+0  74672-3 0  9998
2 69155  53.1593  79.0004 0001231  92.8235 267.2909 15.34383518  6642
STARLINK-37345          
1 69156U 26111J   26182.97329524  .00034832  00000+0  10366-2 0  9995
2 69156  53.1608  82.3225 0001001 114.9033 245.2074 15.34419700  6539
STARLINK-37353          
1 69157U 26111K   26183.42713427  .00026312  00000+0  78737-3 0  9997
2 69157  53.1596  80.1762 0001041 102.1409 257.9710 15.34390845  6601
STARLINK-37363          
1 69158U 26111L   26183.75073391  .00017650  00000+0  53230-3 0  9999
2 69158  53.1584  78.6407 0000679 111.4067 248.7008 15.34398817  6656
STARLINK-37343          
1 69159U 26111M   26183.44945583  .00102296  00000+0  18223-2 0  9990
2 69159  53.1592  80.3477 0000978  94.5744 265.5377 15.49325091  6609
STARLINK-37328          
1 69160U 26111N   26183.42084517  .00295940  00000+0  84900-2 0  9995
2 69160  53.1585  80.1345 0001887  92.6996 267.4223 15.34176411  6608
STARLINK-37311          
1 69161U 26111P   26183.41871796  .00037356  00000+0  11104-2 0  9999
2 69161  53.1588  80.1240 0001440  61.8214 298.2934 15.34425605  6605
STARLINK-36286          
1 69162U 26111Q   26183.41663212  .00052412  00000+0  15505-2 0  9991
2 69162  53.1581  80.1180 0001291  87.4736 272.6414 15.34420717  6607
STARLINK-37196          
1 69163U 26111R   26183.74021153  .00033500  00000+0  99805-3 0  9993
2 69163  53.1599  78.5732 0001878  94.8736 265.2481 15.34404389  6658
STARLINK-36288          
1 69164U 26111S   26183.73809515  .00036989  00000+0  11009-2 0  9992
2 69164  53.1585  78.5691 0001230  87.9510 272.1633 15.34388327  6652
STARLINK-37445          
1 69165U 26111T   26183.73899767  .00018219  00000+0  53242-3 0  9993
2 69165  53.1589  78.5762 0001078  75.8969 284.2154 15.35371001  6654
STARLINK-37491          
1 69166U 26111U   26183.73670152  .00030484  00000+0  88161-3 0  9995
2 69166  53.1584  78.5566 0001054  95.8867 264.2257 15.35387778  6655
STARLINK-37474          
1 69167U 26111V   26183.73178208  .00064375  00000+0  18995-2 0  9994
2 69167  53.1583  78.5217 0000957 107.9216 252.1891 15.34411215  6655
STARLINK-37469          
1 69168U 26111W   26183.72436826  .00087840  00000+0  15665-2 0  9990
2 69168  53.1583  79.2227 0000465   9.7899 350.3119 15.49368062  6645
STARLINK-37515          
1 69169U 26111X   26183.01390090  .00046352  00000+0  13297-2 0  9997
2 69169  53.1585  81.8662 0001321  72.9473 287.1674 15.35443881  6542
STARLINK-37437          
1 69170U 26111Y   26183.66668980  .00069341  00000+0  20448-2 0  9995
2 69170  53.1591  78.7557 0001190 102.9060 292.3075 15.34395962  6042
STARLINK-37392          
1 69171U 26111Z   26183.25897904  .00030141  00000+0  89816-3 0  9992
2 69171  53.1602  80.5487 0001161 111.1922 248.9204 15.34451832  6585
STARLINK-37472          
1 69172U 26111AA  26183.66668980  .00052727  00000+0  15133-2 0  9992
2 69172  53.1597  78.7048 0001197  98.1820 326.6478 15.35371910  6048
STARLINK-37461          
1 69173U 26111AB  26183.71625273  .00059361  00000+0  10658-2 0  9995
2 69173  53.1582  79.1686 0000567  54.2825 305.8237 15.49347737  6647
STARLINK-37333          
1 69174U 26111AC  26183.66668980  .00073754  00000+0  21087-2 0  9992
2 69174  53.1591  78.7560 0001205 122.3264 276.2558 15.35339245  6049
STARLINK-37385          
1 69175U 26111AD  26183.45054706  .00066875  00000+0  11997-2 0  9990
2 69175  53.1585  80.3518 0000962  97.9918 262.1200 15.49321752  6606
STARLINK-37414          
1 69176U 26111AE  26183.00054898  .00021256  00000+0  63794-3 0  9991
2 69176  53.1603  81.7795 0000811  98.1145 261.9950 15.34425405  6544
STRIX-7                 
1 69177U 26112A   26183.80752780  .00005008  00000+0  39648-3 0  9994
2 69177  44.9069 110.4029 0023317 138.2573 222.0082 15.01526457  6228
SHENZHOU-23 (SZ-23)     
1 69180U 26113A   26183.07469613  .00005862  00000+0  70552-4 0  9996
2 69180  41.4669 231.3605 0008782 197.5526 162.5011 15.61404719295433
STARLINK-37380          
1 69182U 26114A   26183.66668980  .00061432  00000+0  18168-2 0  9990
2 69182  53.1605 127.2657 0001321  78.9646 331.3431 15.34359807  6059
STARLINK-37089          
1 69183U 26114B   26183.66668980 -.02307716  00000+0 -72469-1 0  9996
2 69183  53.1595 127.2464 0001167 114.8155 306.1508 15.36132565  6009
STARLINK-37428          
1 69184U 26114C   26183.54191762  .00080815  00000+0  14567-2 0  9993
2 69184  53.1603 128.0178 0005338  41.7492 318.3923 15.49089000  7160
